H1 CPF 01  gfz 2022 07 11 00  6921 terrasarx 
H2 0702601  6201 31698    2022 07 11 00 59 42 2022 07 16 00 00 42   120 1 1  0 0 0
H9
10 0 59771  20142.000000  0    4259866.622   1175855.507   5274590.518
10 0 59771  20262.000000  0    4941214.101   1127288.117   4656267.814
10 0 59771  20382.000000  0    5535098.511   1047862.536   3956001.522
10 0 59771  20502.000000  0    6030598.716    940587.413   3186094.450
10 0 59771  20622.000000  0    6418576.619    809136.429   2360087.930
10 0 59771  20742.000000  0    6691854.795    657751.198   1492522.756
10 0 59771  20862.000000  0    6845358.331    491131.438    598677.818
10 0 59771  20982.000000  0    6876214.085    314313.845   -305705.920
10 0 59771  21102.000000  0    6783806.714    132543.252  -1204711.988
10 0 59771  21222.000000  0    6569787.861    -48860.301  -2082537.541
10 0 59771  21342.000000  0    6238039.691   -224635.710  -2923778.308
10 0 59771  21462.000000  0    5794595.048   -389712.588  -3713703.635
10 0 59771  21582.000000  0    5247515.710   -539337.001  -4438516.404
10 0 59771  21702.000000  0    4606732.269   -669187.638  -5085591.543
10 0 59771  21822.000000  0    3883852.371   -775480.149  -5643689.293
10 0 59771  21942.000000  0    3091941.314   -855058.767  -6103142.091
10 0 59771  22062.000000  0    2245278.829   -905472.384  -6456011.486
10 0 59771  22182.000000  0    1359098.750   -925032.795  -6696213.414
10 0 59771  22302.000000  0     449316.549   -912856.639  -6819612.864
10 0 59771  22422.000000  0    -467752.699   -868888.717  -6824087.661
10 0 59771  22542.000000  0   -1375680.151   -793906.870  -6709560.402
10 0 59771  22662.000000  0   -2258210.941   -689508.490  -6478000.117
10 0 59771  22782.000000  0   -3099548.732   -558078.585  -6133390.745
10 0 59771  22902.000000  0   -3884632.142   -402740.348  -5681670.341
10 0 59771  23022.000000  0   -4599403.860   -227288.369  -5130640.169
10 0 59771  23142.000000  0   -5231064.691    -36105.609  -4489840.682
10 0 59771  23262.000000  0   -5768309.087    165934.073  -3770398.538
10 0 59771  23382.000000  0   -6201538.451    373577.508  -2984842.901
10 0 59771  23502.000000  0   -6523045.059    581314.668  -2146893.569
10 0 59771  23622.000000  0   -6727162.277    783510.401  -1271223.997
10 0 59771  23742.000000  0   -6810378.130    974540.910   -373202.821
10 0 59771  23862.000000  0   -6771404.769   1148932.390    531382.858
10 0 59771  23982.000000  0   -6611203.158   1301498.126   1426611.385
10 0 59771  24102.000000  0   -6332964.580   1427470.963   2296715.207
10 0 59771  24222.000000  0   -5942046.478   1522627.063   3126368.112
10 0 59771  24342.000000  0   -5445863.820   1583397.499   3900963.485
10 0 59771  24462.000000  0   -4853739.588   1606965.064   4606876.377
10 0 59771  24582.000000  0   -4176719.910   1591344.186   5231704.516
10 0 59771  24702.000000  0   -3427359.053   1535442.172   5764484.746
10 0 59771  24822.000000  0   -2619478.864   1439100.627   6195882.721
10 0 59771  24942.000000  0   -1767906.022   1303116.603   6518352.421
10 0 59771  25062.000000  0    -888193.847   1129242.026   6726261.110
10 0 59771  25182.000000  0       3663.720    920162.515   6815980.646
10 0 59771  25302.000000  0     891522.292    679455.744   6785946.353
10 0 59771  25422.000000  0    1759377.981    411530.210   6636682.462
10 0 59771  25542.000000  0    2591654.510    121545.248   6370793.822
10 0 59771  25662.000000  0    3373482.860   -184686.993   5992924.637
10 0 59771  25782.000000  0    4090969.406   -500816.064   5509682.124
10 0 59771  25902.000000  0    4731446.704   -820082.202   4929526.770
10 0 59771  26022.000000  0    5283703.717  -1135457.639   4262630.454
10 0 59771  26142.000000  0    5738190.373  -1439797.369   3520702.527
10 0 59771  26262.000000  0    6087192.517  -1725996.722   2716786.497
10 0 59771  26382.000000  0    6324972.059  -1987151.536   1865029.820
10 0 59771  26502.000000  0    6447868.880  -2216717.399    980431.541
10 0 59771  26622.000000  0    6454361.905  -2408664.127     78571.788
10 0 59771  26742.000000  0    6345086.702  -2557621.042   -824671.309
10 0 59771  26862.000000  0    6122809.490  -2659009.130  -1713410.502
10 0 59771  26982.000000  0    5792357.117  -2709157.400  -2572037.366
10 0 59771  27102.000000  0    5360506.715  -2705399.278  -3385502.244
10 0 59771  27222.000000  0    4835838.482  -2646147.840  -4139580.550
10 0 59771  27342.000000  0    4228556.222  -2530948.881  -4821121.110
10 0 59771  27462.000000  0    3550278.502  -2360510.030  -5418271.794
10 0 59771  27582.000000  0    2813807.364  -2136705.484  -5920676.671
10 0 59771  27702.000000  0    2032882.789  -1862557.778  -6319644.818
10 0 59771  27822.000000  0    1221924.529  -1542196.628  -6608291.337
10 0 59771  27942.000000  0     395765.701  -1180795.067  -6781645.070
10 0 59771  28062.000000  0    -430614.693   -784486.024  -6836724.682
10 0 59771  28182.000000  0   -1242357.283   -360259.803  -6772583.800
10 0 59771  28302.000000  0   -2024983.475     84156.419  -6590325.581
10 0 59771  28422.000000  0   -2764647.723    540435.779  -6293084.775
10 0 59771  28542.000000  0   -3448377.026    999803.020  -5885979.772
10 0 59771  28662.000000  0   -4064296.742   1453198.614  -5376034.671
10 0 59771  28782.000000  0   -4601839.324   1891453.022  -4772069.641
10 0 59771  28902.000000  0   -5051931.429   2305470.119  -4084559.937
10 0 59771  29022.000000  0   -5407154.690   2686413.928  -3325463.508
10 0 59771  29142.000000  0   -5661877.579   3025895.181  -2508021.318
10 0 59771  29262.000000  0   -5812355.688   3316154.741  -1646531.189
10 0 59771  29382.000000  0   -5856795.839   3550239.048   -756097.945
10 0 59771  29502.000000  0   -5795381.462   3722162.401    147634.853
10 0 59771  29622.000000  0   -5630259.420   3827052.139   1048766.781
10 0 59771  29742.000000  0   -5365485.078   3861271.575   1931429.965
10 0 59771  29862.000000  0   -5006928.145   3822518.156   2780077.203
10 0 59771  29982.000000  0   -4562143.793   3709894.655   3579763.490
10 0 59771  30102.000000  0   -4040210.188   3523951.042   4316416.149
10 0 59771  30222.000000  0   -3451537.778   3266695.645   4977085.382
10 0 59771  30342.000000  0   -2807655.841   2941577.791   5550172.728
10 0 59771  30462.000000  0   -2120979.821   2553440.513   6025632.380
10 0 59771  30582.000000  0   -1404566.566   2108445.303   6395142.911
10 0 59771  30702.000000  0    -671861.576   1613970.527   6652245.763
10 0 59771  30822.000000  0      63553.567   1078486.667   6792451.090
10 0 59771  30942.000000  0     788212.620    511409.778   6813311.649
10 0 59771  31062.000000  0    1489010.335    -77063.874   6714462.381
10 0 59771  31182.000000  0    2153438.288   -676140.268   6497626.964
10 0 59771  31302.000000  0    2769807.699  -1274625.122   6166590.240
10 0 59771  31422.000000  0    3327456.616  -1861132.104   5727137.190
10 0 59771  31542.000000  0    3816937.887  -2424299.959   5186957.337
10 0 59771  31662.000000  0    4230183.513  -2953013.202   4555515.909
10 0 59771  31782.000000  0    4560643.136  -3436624.139   3843893.730
10 0 59771  31902.000000  0    4803393.960  -3865170.946   3064596.216
10 0 59771  32022.000000  0    4955219.587  -4229586.322   2231333.758
10 0 59771  32142.000000  0    5014653.778  -4521891.253   1358777.171
10 0 59771  32262.000000  0    4981988.665  -4735369.932    462294.326
10 0 59771  32382.000000  0    4859247.525  -4864721.489   -442327.738
10 0 59771  32502.000000  0    4650122.396  -4906183.568  -1339169.447
10 0 59771  32622.000000  0    4359877.916  -4857624.586  -2212467.938
10 0 59771  32742.000000  0    3995223.839  -4718602.789  -3046901.295
10 0 59771  32862.000000  0    3564159.957  -4490390.759  -3827862.022
10 0 59771  32982.000000  0    3075798.447  -4175965.635  -4541714.045
10 0 59771  33102.000000  0    2540167.537  -3779964.999  -5176028.689
10 0 59771  33222.000000  0    1968001.585  -3308610.761  -5719793.550
10 0 59771  33342.000000  0    1370524.992  -2769605.237  -6163593.241
10 0 59771  33462.000000  0     759232.200  -2172001.087  -6499762.585
10 0 59771  33582.000000  0     145667.650  -1526045.563  -6722508.774
10 0 59771  33702.000000  0    -458788.742   -843003.536  -6828000.491
10 0 59771  33822.000000  0   -1043127.107   -134963.169  -6814425.805
10 0 59771  33942.000000  0   -1596903.351    585373.229  -6682019.399
10 0 59771  34062.000000  0   -2110421.567   1304911.094  -6433058.536
10 0 59771  34182.000000  0   -2574899.834   2010395.761  -6071828.129
10 0 59771  34302.000000  0   -2982618.966   2688651.005  -5604555.564
10 0 59771  34422.000000  0   -3327051.740   3326822.647  -5039314.712
10 0 59771  34542.000000  0   -3602971.202   3912622.419  -4385898.228
10 0 59771  34662.000000  0   -3806534.563   4434567.358  -3655657.636
10 0 59771  34782.000000  0   -3935339.265   4882208.922  -2861314.029
10 0 59771  34902.000000  0   -3988451.805   5246347.680  -2016743.244
10 0 59771  35022.000000  0   -3966409.000   5519229.106  -1136736.710
10 0 59771  35142.000000  0   -3871189.332   5694715.836   -236740.624
10 0 59771  35262.000000  0   -3706153.845   5768428.024    667420.798
10 0 59771  35382.000000  0   -3475959.834   5737850.427   1559831.064
10 0 59771  35502.000000  0   -3186446.681   5602403.029   2424772.105
10 0 59771  35622.000000  0   -2844496.533   5363470.032   3247011.181
10 0 59771  35742.000000  0   -2457875.580   5024388.545   4012075.308
10 0 59771  35862.000000  0   -2035060.014   4590399.246   4706510.044
10 0 59771  35982.000000  0   -1585051.117   4068559.408   5318117.677
10 0 59771  36102.000000  0   -1117183.117   3467620.415   5836170.772
10 0 59771  36222.000000  0    -640929.197   2797872.748   6251595.911
10 0 59771  36342.000000  0    -165710.180   2070962.906   6557126.398
10 0 59771  36462.000000  0     299290.617   1299687.140   6747423.331
10 0 59771  36582.000000  0     745304.210    497763.211   6819163.664
99
